DUCHIFAT-1              
1 40021U 14033M   26178.12074074  .00123708  00000+0  11664-2 0  9997
2 40021  98.0447 238.6906 0001012 103.7667 256.3704 15.66663856657309
NANOSATC-BR1            
1 40024U 14033Q   26178.07067232  .00017817  00000+0  58279-3 0  9999
2 40024  98.0720 211.3356 0005075 138.8301 221.3322 15.31766053655491
QB50P1                  
1 40025U 14033R   26178.29918808  .00008713  00000+0  42669-3 0  9999
2 40025  98.0962 190.1548 0008862 179.4885 180.6358 15.18409172654566
DTUSAT-2                
1 40030U 14033W   26178.27671014  .00007888  00000+0  42435-3 0  9991
2 40030  98.0863 176.6450 0007644 188.0269 172.0840 15.15140196654210
QB50P2                  
1 40032U 14033Y   26177.93986302  .00007905  00000+0  42349-3 0  9998
2 40032  98.0751 175.4276 0008808 134.4942 225.7010 15.15279708654146
PERSEUS-M1              
1 40039U 14033AF  26178.07145688  .00001904  00000+0  17656-3 0  9991
2 40039  97.9648 122.3656 0009803 264.1554  95.8549 14.95665219652116
POLYITAN-1              
1 40042U 14033AJ  26178.03640311  .00020395  00000+0  62898-3 0  9997
2 40042  98.0939 205.2302 0008864 114.7934 245.4230 15.33595602655105
TIGRISAT                
1 40043U 14033AK  26178.15445451  .00001856  00000+0  21812-3 0  9991
2 40043  97.7841 327.9382 0050093  43.2551 317.2581 14.85196626647103
CANX-4                  
1 40055U 14034C   26178.21686773  .00000942  00000+0  12806-3 0  9994
2 40055  98.3111  53.8976 0012394 345.1677  14.9169 14.81281845646018
CANX-5                  
1 40056U 14034D   26178.21518419  .00000937  00000+0  12736-3 0  9992
2 40056  98.3113  53.9400 0012391 345.4382  14.6471 14.81299077636824
GONETS-M 10             
1 40063U 14036C   26178.29311045  .00000023  00000+0  90797-4 0  9996
2 40063  82.5116 301.3969 0022921 119.4679 240.8692 12.42946084543500
METEOR-M 2              
1 40069U 14037A   26178.28175806  .00000388  00000+0  19668-3 0  9996
2 40069  98.5111 153.6627 0006260  18.9192 341.2217 14.21464891620750
DX1                     
1 40071U 14037C   26178.23320653  .00002083  00000+0  22241-3 0  9991
2 40071  98.3862 140.5445 0005888 234.8844 125.1820 14.90013670647608
UKUBE-1                 
1 40074U 14037F   26177.95219198  .00009082  00000+0  50852-3 0  9998
2 40074  98.4236 182.2506 0003059 116.7089 243.4453 15.13699275650039
GAOFEN-2                
1 40118U 14049A   26178.31146985  .00000098  00000+0  19575-4 0  9990
2 40118  98.0110 242.5089 0006788 189.9254 170.1825 14.80907224640733
BRITE-PL2 (HEWELIUSZ)   
1 40119U 14049B   26178.28155511  .00001731  00000+0  16501-3 0  9992
2 40119  97.9107 290.3598 0015335  77.6712 282.6224 14.94630777642953
CBERS 4                 
1 40336U 14079A   26178.28338943  .00000028  00000+0  24280-4 0  9990
2 40336  98.3533 234.7983 0001537  54.6682 305.4647 14.35511368605403
SMAP                    
1 40376U 15003A   26178.26794176  .00000445  00000+0  95141-4 0  9991
2 40376  98.1276 185.2196 0001439  98.3367 261.7998 14.63374974609094
GONETS-M 11             
1 40552U 15020A   26178.31205203 -.00000078  00000+0 -63370-3 0  9992
2 40552  82.4869  24.6822 0016124 343.9218  16.1348 12.42877684509997
GONETS-M 12             
1 40553U 15020B   26178.28543213  .00000086  00000+0  55156-3 0  9995
2 40553  82.4903  25.8252 0014846 328.7236  31.2959 12.42891601509987
GONETS-M 13             
1 40554U 15020C   26178.25908308 -.00000001  00000+0 -78441-4 0  9995
2 40554  82.4865  24.4537 0013189 313.4854  46.5128 12.42870952509952
DMC3-FM1                
1 40715U 15032A   26178.24019080  .00000694  00000+0  85797-4 0  9994
2 40715  97.6456  43.0206 0006429  32.8816 327.2799 14.85748335591406
DMC3-FM2                
1 40716U 15032B   26178.26220245  .00001190  00000+0  14284-3 0  9998
2 40716  97.6512  44.6225 0007111  37.3402 322.8307 14.85757004591407
DMC3-FM3                
1 40717U 15032C   26178.28559972  .00000314  00000+0  42122-4 0  9993
2 40717  97.6564  46.4045 0006348  37.9458 322.2204 14.85744044591414
CARBONITE 1 (CBNT-1)    
1 40718U 15032D   26178.29927088  .00001450  00000+0  18175-3 0  9994
2 40718  97.6508 355.9421 0012947 261.1192  98.8556 14.83614530590843
LILACSAT-2              
1 40908U 15049K   26178.33302722  .00018646  00000+0  31362-3 0  9998
2 40908  97.4637 215.5614 0006478 200.5095 159.5898 15.51771421597324
